BEIDOU-2 IGSO-1 (C06)   
1 36828U 10036A   25083.62717534 -.00000134  00000+0  00000+0 0  9997
2 36828  54.2673 167.0295 0045938 211.2825 133.6649  1.00249726 53580
BEIDOU-2 G4 (C04)       
1 37210U 10057A   25083.28639845 -.00000111  00000+0  00000+0 0  9991
2 37210   2.5286  70.4338 0006424 207.5115 167.1707  1.00271388 52781
BEIDOU-2 IGSO-2 (C07)   
1 37256U 10068A   25082.78304529 -.00000155  00000+0  00000+0 0  9993
2 37256  48.3639 277.3931 0039327 211.4231  82.1907  1.00262827 52279
BEIDOU-2 IGSO-3 (C08)   
1 37384U 11013A   25083.58646242 -.00000156  00000+0  00000+0 0  9997
2 37384  61.7714  44.4154 0030369 183.1783 273.5396  1.00287491 51156
BEIDOU-2 IGSO-4 (C09)   
1 37763U 11038A   25082.70190369 -.00000060  00000+0  00000+0 0  9996
2 37763  54.5715 169.7029 0137042 229.6463 126.0160  1.00250470 50121
BEIDOU-2 IGSO-5 (C10)   
1 37948U 11073A   25083.41020441 -.00000097  00000+0  00000+0 0  9992
2 37948  48.4993 277.0868 0101372 219.4879 289.2907  1.00267977 48628
BEIDOU-2 G5 (C05)       
1 38091U 12008A   25083.44350271  .00000057  00000+0  00000+0 0  9996
2 38091   2.4509  71.2342 0012647 255.0176  74.3621  1.00276016 47858
BEIDOU-2 M3 (C11)       
1 38250U 12018A   25081.07323783 -.00000046  00000+0  00000+0 0  9998
2 38250  56.1337 320.0673 0021394 273.4183  86.3886  1.86233730 87527
BEIDOU-2 M4 (C12)       
1 38251U 12018B   25082.07855678 -.00000039  00000+0  00000+0 0  9995
2 38251  56.0371 319.2838 0012471 279.8553  80.0567  1.86232161 87541
BEIDOU-2 M6 (C14)       
1 38775U 12050B   25083.39933033  .00000043  00000+0  00000+0 0  9994
2 38775  56.1492  77.8119 0014419 336.4817  23.4763  1.86231006 84939
BEIDOU-2 G6 (C02)       
1 38953U 12059A   25083.43239265 -.00000174  00000+0  00000+0 0  9998
2 38953   3.2748  78.1128 0010463 304.2629  39.4774  1.00272310 45392
BEIDOU-3S IGSO-1S (C31) 
1 40549U 15019A   25083.07475429 -.00000118  00000+0  00000+0 0  9993
2 40549  50.0462 300.8654 0037042 191.8072 167.4218  1.00295916 36552
BEIDOU-3S M2S (C58)     
1 40748U 15037A   25082.28073036 -.00000035  00000+0  00000+0 0  9992
2 40748  55.2610 317.5220 0008663 269.9833  89.9698  1.86228988 65728
BEIDOU-3S M1S (C57)     
1 40749U 15037B   25083.08277180 -.00000032  00000+0  00000+0 0  9995
2 40749  55.2568 317.4874 0004423  15.3103 344.7569  1.86253779 65745
BEIDOU-2 IGSO-6 (C13)   
1 41434U 16021A   25083.59167653 -.00000127  00000+0  00000+0 0  9995
2 41434  59.5941  42.5259 0053174 230.1600 217.2503  1.00260516 32972
BEIDOU-2 G7 (C03)       
1 41586U 16037A   25083.48184924 -.00000353  00000+0  00000+0 0  9999
2 41586   1.5564  67.6968 0010407 335.6124  62.8454  1.00275859  2384
BEIDOU-3 M1 (C19)       
1 43001U 17069A   25082.62811727  .00000040  00000+0  00000+0 0  9994
2 43001  56.2974  77.9708 0012533 305.4177  54.4886  1.86231275 50210
BEIDOU-3 M2 (C20)       
1 43002U 17069B   25083.10286003  .00000043  00000+0  00000+0 0  9995
2 43002  56.2976  77.9906 0010071 324.8985  35.0591  1.86230898 50218
BEIDOU-3 M7 (C27)       
1 43107U 18003A   25082.31248354 -.00000037  00000+0  00000+0 0  9993
2 43107  54.7193 317.9891 0004809  65.7812 294.3209  1.86232433 48951
BEIDOU-3 M8 (C28)       
1 43108U 18003B   25082.25520922 -.00000038  00000+0  00000+0 0  9992
2 43108  54.7123 317.9752 0002975 285.3720  74.6469  1.86230929 48967
BEIDOU-3 M4 (C22)       
1 43207U 18018A   25083.23323584  .00000043  00000+0  00000+0 0  9997
2 43207  56.2566  78.0303 0007100 343.8835  16.1181  1.86231182 48362
BEIDOU-3 M3 (C21)       
1 43208U 18018B   25083.29975896  .00000044  00000+0  00000+0 0  9994
2 43208  56.2562  78.0322 0010128 314.9071  45.0349  1.86231236 48362
BEIDOU-3 M9 (C29)       
1 43245U 18029A   25082.98159005 -.00000030  00000+0  00000+0 0  9994
2 43245  54.5940 315.6468 0000923   4.1982 355.8554  1.86232642 47514
BEIDOU-3 M10 (C30)      
1 43246U 18029B   25082.91263359 -.00000030  00000+0  00000+0 0  9996
2 43246  54.5912 315.6757 0005009  18.1634 341.9072  1.86229000 47496
BEIDOU-2 IGSO-7 (C16)   
1 43539U 18057A   25083.51858632 -.00000152  00000+0  00000+0 0  9998
2 43539  55.1579 166.9578 0086571 235.2907  79.5867  1.00282751 24616
BEIDOU-3 M5 (C23)       
1 43581U 18062A   25082.60109409  .00000002  00000+0  00000+0 0  9994
2 43581  54.1063 197.6243 0002371 290.4373  69.5255  1.86228665 45246
BEIDOU-3 M6 (C24)       
1 43582U 18062B   25081.92857070  .00000006  00000+0  00000+0 0  9997
2 43582  54.1059 197.6363 0005434  36.9745 323.0528  1.86229439 45234
BEIDOU-3 M12 (C26)      
1 43602U 18067A   25081.32664476  .00000009  00000+0  00000+0 0  9998
2 43602  54.1983 196.3637 0007781  33.9456 326.0970  1.86227844 44709
BEIDOU-3 M11 (C25)      
1 43603U 18067B   25080.92349084  .00000011  00000+0  00000+0 0  9992
2 43603  54.1956 196.3418 0004371  26.5799 333.4361  1.86227255 44721
BEIDOU-3 M13 (C32)      
1 43622U 18072A   25083.03090633  .00000041  00000+0  00000+0 0  9990
2 43622  56.2293  77.5597 0009046 304.3896  55.5481  1.86231221 44279
BEIDOU-3 M14 (C33)      
1 43623U 18072B   25083.43334176  .00000043  00000+0  00000+0 0  9990
2 43623  56.2315  77.5398 0006669 324.5144  35.4649  1.86231211 44274
BEIDOU-3 M16 (C35)      
1 43647U 18078A   25083.05708283 -.00000030  00000+0  00000+0 0  9991
2 43647  54.4900 315.7187 0008219  24.4290 335.6629  1.86232296 43775
BEIDOU-3 M15 (C34)      
1 43648U 18078B   25083.18632343 -.00000029  00000+0  00000+0 0  9997
2 43648  54.4857 315.7160 0005224  33.1401 326.9457  1.86232154 43799
BEIDOU-3 G1 (C59)       
1 43683U 18085A   25083.45183704 -.00000277  00000+0  00000+0 0  9991
2 43683   2.8904 100.3290 0003002 353.4836  31.0231  1.00275216 23550
BEIDOU-3 M17 (C36)      
1 43706U 18093A   25082.80347592  .00000001  00000+0  00000+0 0  9995
2 43706  54.1893 197.5765 0007439 288.2875  71.6194  1.86228360 43152
BEIDOU-3 M18 (C37)      
1 43707U 18093B   25083.20350492  .00000000  00000+0  00000+0 0  9993
2 43707  54.1900 197.5546 0006034 326.5101  33.4385  1.86229800 43155
BEIDOU-3 IGSO-1 (C38)   
1 44204U 19023A   25083.58268580 -.00000191  00000+0  00000+0 0  9999
2 44204  58.0588  42.2969 0021894 227.3011 241.9216  1.00270671  2700
BEIDOU-2 G8 (C01)       
1 44231U 19027A   25083.52544762 -.00000247  00000+0  00000+0 0  9998
2 44231   1.4755  74.6486 0005552 254.0305 187.2682  1.00272375 21575
BEIDOU-3 IGSO-2 (C39)   
1 44337U 19035A   25083.51990576 -.00000151  00000+0  00000+0 0  9995
2 44337  55.1989 162.8107 0035421 206.8600 116.5001  1.00297525 21156
BEIDOU-3 M24 (C46)      
1 44542U 19061A   25082.20016992  .00000005  00000+0  00000+0 0  9995
2 44542  54.4169 197.9385 0007788   9.9021 350.1021  1.86228963 37392
BEIDOU-3 M23 (C45)      
1 44543U 19061B   25083.40452267 -.00000001  00000+0  00000+0 0  9995
2 44543  54.4156 197.8665 0004480   0.1727 359.9717  1.86229221 37422
BEIDOU-3 IGSO-3 (C40)   
1 44709U 19073A   25081.95804333 -.00000136  00000+0  00000+0 0  9994
2 44709  55.5728 285.7543 0042306 181.5839 178.4249  1.00271741 19932
BEIDOU-3 M22 (C44)      
1 44793U 19078A   25082.04350981 -.00000035  00000+0  00000+0 0  9996
2 44793  54.3380 315.6518 0007176  30.6162 329.4765  1.86232089 36240
BEIDOU-3 M21 (C43)      
1 44794U 19078B   25082.71196235 -.00000031  00000+0  00000+0 0  9997
2 44794  54.3110 315.5985 0005196  26.2207 333.8577  1.86227751 36262
BEIDOU-3 M19 (C41)      
1 44864U 19090A   25083.09473557  .00000042  00000+0  00000+0 0  9997
2 44864  56.1630  77.7138 0020203 287.0349 162.7238  1.86231579 35854
BEIDOU-3 M20 (C42)      
1 44865U 19090B   25083.41205510  .00000043  00000+0  00000+0 0  9997
2 44865  56.1649  77.7370 0017848 298.6731  93.5106  1.86231488 35840
BEIDOU-3 G2 (C60)       
1 45344U 20017A   25082.98485222 -.00000139  00000+0  00000+0 0  9999
2 45344   2.7268  38.4731 0002953 321.7336 256.0726  1.00270732 18747
BEIDOU-3 G3 (C61)       
1 45807U 20040A   25083.48184924 -.00000354  00000+0  00000+0 0  9999
2 45807   1.3617  61.7009 0002915 318.7167  85.6982  1.00277289 17560
BEIDOU-3 G4 (C62)       
1 56564U 23066A   25083.51989275 -.00000114  00000+0  00000+0 0  9992
2 56564   1.4311 290.5940 0002206 203.9347  34.8647  1.00270823  6882
BEIDOU-3 M28 (C50)      
1 58654U 23207A   25083.32968847  .00000040  00000+0  00000+0 0  9999
2 58654  55.3511  77.5267 0004974 297.6898  62.2835  1.86232031  8467
BEIDOU-3 M26 (C48)      
1 58655U 23207B   25083.12935273  .00000039  00000+0  00000+0 0  9993
2 58655  55.3530  77.5194 0005619 283.2530  76.7079  1.86231556  8448
BEIDOU-3 M25 (C47)      
1 61186U 24168B   25083.03868741 -.00000034  00000+0  00000+0 0  9994
2 61186  54.8643 317.8386 0004296 309.4661 107.9307  1.86230097  3400
BEIDOU-3 M27 (C49)      
1 61187U 24168C   25082.84513204 -.00000034  00000+0  00000+0 0  9994
2 61187  54.8599 317.8301 0002845  12.6109  49.8744  1.86230288   875
